0 SL-12 DEB
1 39800U 08046M   21154.35757693  .00000076  00000-0  70683-4 0  9997
2 39800  64.8918 300.6336 5815508 341.1428   4.0442  4.23534028108525
0 SL-12 DEB
1 39801U 08046N   21154.12131893  .00004932  00000-0  45141-3 0  9996
2 39801  64.7668 199.2828 5616721 335.7364   5.8344  4.66739307114755
0 COSMOS 1823 DEB
1 39805U 87020ED  21154.17284843 -.00000003  00000-0  10535-3 0  9993
2 39805  73.5961 305.6557 0022238 342.6889 191.9137 12.42619376317582
0 COSMOS 1823 DEB
1 39806U 87020EE  21153.26670915  .00000104  00000-0  91052-3 0  9996
2 39806  73.6309 165.2481 0067369  95.6540 265.2190 12.38815203317956
0 COSMOS 1823 DEB
1 39807U 87020EF  21153.47357510  .00000103  00000-0  12383-3 0  9992
2 39807  74.0277  53.6083 0026784 202.7860 332.6637 13.78562744354822
0 COSMOS 1823 DEB
1 39808U 87020EG  21152.27274833  .00000122  00000-0  99638-3 0  9995
2 39808  73.6232   5.0687 0041480 316.8784  42.9014 12.43528550317278
0 COSMOS 1823 DEB
1 39810U 87020EJ  21154.14735556  .00000062  00000-0  58054-3 0  9990
2 39810  73.7015 118.0158 0035855 231.6631 128.1189 12.41350567319027
0 COSMOS 1823 DEB
1 39811U 87020EK  21152.18597014  .00000099  00000-0  81141-3 0  9991
2 39811  73.6294 313.6141 0025081 250.3855 284.9187 12.45472392793870
0 COSMOS 1823 DEB
1 39812U 87020EL  21150.47418709 -.00000006  00000-0  84716-4 0  9996
2 39812  73.6201  73.6771 0038647  31.8449 328.4919 12.39541987786288
0 COSMOS 1823 DEB
1 39813U 87020EM  21154.12783407  .00000147  00000-0  11160-2 0  9999
2 39813  73.6377 284.2117 0028925 191.6305 343.7647 12.47576529318379
0 COSMOS 1823 DEB
1 39814U 87020EN  21152.84525345  .00000014  00000-0  22654-3 0  9996
2 39814  73.6138 337.2612 0025095 317.2896  42.6198 12.42836081317248
0 COSMOS 1823 DEB
1 39815U 87020EP  21153.23735887  .00000008  00000-0  18222-3 0  9994
2 39815  73.6016 347.8467 0027066 357.5855   2.5054 12.41870611476485
0 COSMOS 1823 DEB
1 39816U 87020EQ  21154.00997743  .00000110  00000-0  17979-4 0  9995
2 39816  74.0442  59.5190 0033281 344.6346  15.3818 14.83040584358162
0 COSMOS 1823 DEB
1 39817U 87020ER  21154.42623696  .00000038  00000-0  35712-3 0  9998
2 39817  73.7159 215.4593 0015520 358.0694  15.1415 12.51209021776267
0 COSMOS 1823 DEB
1 39818U 87020ES  21154.50608301  .00000094  00000-0  73844-3 0  9994
2 39818  73.6174 238.0347 0030795 185.1533 174.9203 12.49719214303299
0 COSMOS 1823 DEB
1 39819U 87020ET  21152.88294781 -.00000065  00000-0 -34119-3 0  9999
2 39819  73.6757  27.2608 0025380 216.5029 143.4287 12.42991072710829
0 COSMOS 1823 DEB
1 39820U 87020EU  21152.19483279  .00000059  00000-0  53696-3 0  9999
2 39820  73.6327 302.8496 0020190 223.6267 311.1969 12.45160490317940
0 COSMOS 1823 DEB
1 39821U 87020EV  21154.57417047  .00000088  00000-0  55199-3 0  9996
2 39821  73.2357 266.1723 0095957 219.6407 139.7608 12.68000440348557
0 COSMOS 1823 DEB
1 39822U 87020EW  21153.43522729 -.00000135  00000-0 -10005-2 0  9996
2 39822  73.9727  59.5990 0114206 293.7434  65.1659 12.29327229754786
0 COSMOS 1823 DEB
1 39823U 87020EX  21154.54561183  .00000143  00000-0  11276-2 0  9995
2 39823  73.7105  84.3778 0055519 176.3057   0.3257 12.44305408798294
0 COSMOS 1823 DEB
1 39824U 87020EY  21154.71218979  .00000128  00000-0  10182-2 0  9995
2 39824  73.6174 302.4130 0022925 257.0558 118.2753 12.45358810738036
0 COSMOS 1823 DEB
1 39825U 87020EZ  21154.23393660  .00000024  00000-0  29889-3 0  9994
2 39825  73.6040 321.5150 0025347 329.8736 206.7684 12.42716963760158
0 COSMOS 1823 DEB
1 39827U 87020FB  21151.21073890 -.00000014  00000-0  26150-4 0  9990
2 39827  73.5980 344.8658 0028582   2.5742 357.5444 12.41797752317891
0 COSMOS 1823 DEB
1 39829U 87020FD  21153.81323792  .00000007  00000-0  17724-3 0  9996
2 39829  73.6098 341.8763 0025671 329.0483  30.9047 12.42080190 68721
0 COSMOS 1823 DEB
1 39830U 87020FE  21154.54466897  .00000095  00000-0  77494-3 0  9990
2 39830  73.5971 255.3883 0025231 267.6158  92.2000 12.46450094337369
0 COSMOS 1823 DEB
1 39832U 87020FG  21154.37924175  .00000002  00000-0  14583-3 0  9999
2 39832  73.6101  32.8704 0037291  29.4134 330.8997 12.40510122316708
0 COSMOS 1823 DEB
1 39833U 87020FH  21154.14433341  .00000158  00000-0  10432-2 0  9995
2 39833  73.7784 101.5902 0027131 177.2810 182.8396 12.57676110321269
0 COSMOS 1823 DEB
1 39834U 87020FJ  21153.24839137 -.00000003  00000-0  10351-3 0  9990
2 39834  73.6000  92.6760 0046368 115.6041 244.9803 12.37959078558177
0 SL-8 DEB
1 39835U 91009DT  21151.46023327  .00000007  00000-0  18986-3 0  9996
2 39835  74.0451 327.6772 0177775 353.6741   6.2050 12.22826720312470
0 SL-8 DEB
1 39836U 91009DU  21152.95458519  .00000017  00000-0  27761-3 0  9999
2 39836  73.9115 342.5157 0136868 236.9937 194.7761 12.29322151315333
0 SL-8 DEB
1 39837U 91009DV  21152.18784863  .00002689  00000-0  81773-2 0  9998
2 39837  73.8077 332.5338 0019753 291.2872  68.6100 13.06656519332109
0 SL-8 DEB
1 39839U 91009DX  21153.54235003 -.00000003  00000-0  87476-4 0  9995
2 39839  73.8320  82.6978 0091502 176.2568 183.9186 12.49399130674575
0 SL-8 DEB
1 39840U 91009DY  21152.42212801  .00003111  00000-0  50335-2 0  9998
2 39840  73.8147 199.0265 0124369 255.3826 115.4068 13.45652513344746
0 SL-16 DEB
1 39841U 92093KT  21153.29142868  .00002208  00000-0  25026-3 0  9990
2 39841  70.7535 123.4632 0042331 351.7084  75.0404 14.87093138378615
0 SL-16 DEB
1 39842U 92093KU  21152.73622560  .00003487  00000-0  45118-3 0  9995
2 39842  70.9554 158.9357 0038422 177.2676 182.8699 14.81149863376971
0 SL-16 DEB
1 39843U 92093KV  21154.19487902  .00001703  00000-0  35097-3 0  9991
2 39843  70.9204  94.4269 0042358 112.2892 248.2754 14.61472032371892
0 SL-16 DEB
1 39844U 92093KW  21149.98696036  .00000945  00000-0  36879-3 0  9999
2 39844  70.6546 261.5232 0044141 286.9866  72.6428 14.31822472365083
0 SL-16 DEB
1 39845U 92093KX  21153.77181994  .00000654  00000-0  40411-3 0  9998
2 39845  70.9814 295.9718 0135404 210.3055 149.0184 14.04555252898694
0 SL-16 DEB
1 39846U 92093KY  21140.00294318  .00001264  00000-0  49169-3 0  9993
2 39846  71.2781  18.1032 0091259 294.2137  64.9478 14.29394335866547
0 SL-16 DEB
1 39847U 92093KZ  21154.53936249  .00000230  00000-0  97525-4 0  9995
2 39847  71.0346  83.1403 0061514  79.4127 281.3927 14.34124207367174
0 SL-16 DEB
1 39848U 92093LA  21152.43488822  .00000910  00000-0  31645-3 0  9997
2 39848  71.2375 207.3725 0059067  16.3167 343.9852 14.37058919357103
0 SL-16 DEB
1 39849U 92093LB  21154.12678941  .00000276  00000-0  20115-3 0  9994
2 39849  70.8671  78.9368 0086296  48.5272 312.3210 14.02993530358794
0 SL-16 DEB
1 39851U 92093LD  21154.26906466  .00002106  00000-0  79194-3 0  9993
2 39851  71.0892  99.1408 0133811  87.3748 274.2691 14.27802676333957
0 SL-16 DEB
1 39852U 92093LE  21154.68434234  .00000552  00000-0  18406-3 0  9991
2 39852  71.0097 271.6950 0003897  88.5264 271.6320 14.41888581952154
0 SL-16 DEB
1 39853U 92093LF  21153.53271908  .00000482  00000-0  70523-4 0  9993
2 39853  71.2806  85.5412 0077938 267.1747  92.0490 14.79375135377227
0 SL-16 DEB
1 39855U 92093LH  21153.87707487  .00001537  00000-0  46657-3 0  9990
2 39855  70.5244 232.0190 0101438 127.6625 233.3764 14.40986951366300
0 SL-16 DEB
1 39857U 92093LK  21152.34031547  .00000543  00000-0  28482-3 0  9992
2 39857  70.9211 132.7953 0064081 143.3857 217.1673 14.17618670361383
0 SL-16 DEB
1 39858U 92093LL  21154.04350959  .00001353  00000-0  34477-3 0  9994
2 39858  70.9463 276.2614 0050967 210.1197 272.1023 14.51732002369785
0 SL-16 DEB
1 39860U 92093LN  21154.04837421  .00000270  00000-0  13503-3 0  9995
2 39860  70.7885  26.7833 0032059 184.1165 175.9703 14.25404950363780
0 SL-16 DEB
1 39862U 92093LQ  21154.58361602  .00000269  00000-0  74472-4 0  9990
2 39862  70.8362 246.8507 0084561 143.9879 216.7003 14.53990177840392
0 SL-16 DEB
1 39863U 92093LR  21154.51179806  .00000122  00000-0  89736-4 0  9994
2 39863  70.9822 208.5087 0158264  74.3224 287.5291 14.06836476936240
0 SL-16 DEB
1 39864U 92093LS  21147.29161916  .00000666  00000-0  38438-3 0  9990
2 39864  71.1503  11.2192 0123772 196.0757 163.6423 14.08770446358363
0 SL-16 DEB
1 39865U 92093LT  21154.04636056  .00000252  00000-0  11423-3 0  9990
2 39865  71.0167  83.4311 0006041 324.5891  35.4839 14.31065913365388
0 SL-16 DEB
1 39866U 92093LU  21153.37809574  .00001387  00000-0  52956-3 0  9999
2 39866  71.2878  12.1871 0091299 289.1108 245.8362 14.30148071364143
0 SL-16 DEB
1 39867U 92093LV  21154.27268186  .00000914  00000-0  56520-3 0  9994
2 39867  70.9782  21.5079 0173403 227.2782 131.3627 14.00784309337901
0 SL-16 DEB
1 39868U 93016AS  21153.26233081  .00002116  00000-0  99630-3 0  9990
2 39868  70.9635   5.2822 0137489 187.7255 172.1753 14.16200367340566
0 SL-16 DEB
1 39870U 93016AU  21151.51737546  .00001006  00000-0  42812-3 0  9991
2 39870  70.9787 208.7032 0124178  79.8695 281.6412 14.23490175933911
0 SL-16 DEB
1 39871U 93016AV  21152.40927973  .00000586  00000-0  67700-4 0  9992
2 39871  71.0294 198.7104 0066613 191.5762 181.7609 14.89055195379172
0 SL-16 DEB
1 39872U 93016AW  21153.95439001  .00000436  00000-0  33151-3 0  9990
2 39872  70.9874 144.8784 0145546 270.3678 119.3398 13.94343166355816
0 SL-16 DEB
1 39873U 93016AX  21151.78163584  .00000630  00000-0  29454-3 0  9997
2 39873  70.4049 305.0741 0117509 315.5341  43.6392 14.20883090361979
0 SL-16 DEB
1 39874U 93016AY  21152.06219046  .00001728  00000-0  62858-3 0  9999
2 39874  70.9404  27.1269 0105305 344.3488  86.2043 14.31563562364284
0 SL-16 DEB
1 39876U 93016BA  21153.59253026  .00001627  00000-0  64814-3 0  9998
2 39876  70.9667 143.1547 0118530  42.4339 318.5879 14.26286713362987
0 SL-16 DEB
1 39877U 93016BB  21149.91336545  .00001665  00000-0  77050-3 0  9996
2 39877  70.9857 353.4023 0140843 180.3954 179.7083 14.17154728362828
0 SL-16 DEB
1 39878U 93016BC  21150.94348544  .00001528  00000-0  71266-3 0  9995
2 39878  70.9849 359.1761 0142045 186.1712 173.7669 14.16792120353045
